{
    "links": {
        "self": "http://www.neowsapp.com/rest/v1/neo/3125007?api_key=iIulBulltgU6a56xZRHN4H3l9WmuAYTsLGpBGhQ2"
    },
    "id": "3125007",
    "neo_reference_id": "3125007",
    "name": "(2002 JU15)",
    "designation": "2002 JU15",
    "nasa_jpl_url": "http://ssd.jpl.nasa.gov/sbdb.cgi?sstr=3125007",
    "absolute_magnitude_h": 26.2,
    "estimated_diameter": {
        "kilometers": {
            "estimated_diameter_min": 0.0152951935,
            "estimated_diameter_max": 0.0342010925
        },
        "meters": {
            "estimated_diameter_min": 15.2951935344,
            "estimated_diameter_max": 34.201092472
        },
        "miles": {
            "estimated_diameter_min": 0.0095039897,
            "estimated_diameter_max": 0.021251567
        },
        "feet": {
            "estimated_diameter_min": 50.1810827555,
            "estimated_diameter_max": 112.2083122258
        }
    },
    "is_potentially_hazardous_asteroid": false,
    "close_approach_data": [
        {
            "close_approach_date": "1993-05-25",
            "close_approach_date_full": "1993-May-25 01:02",
            "epoch_date_close_approach": 738291720000,
            "relative_velocity": {
                "kilometers_per_second": "15.9732118788",
                "kilometers_per_hour": "57503.5627635979",
                "miles_per_hour": "35730.4776516367"
            },
            "miss_distance": {
                "astronomical": "0.3435556311",
                "lunar": "133.6431404979",
                "kilometers": "51395190.639065757",
                "miles": "31935490.5947391666"
            },
            "orbiting_body": "Earth"
        },
        {
            "close_approach_date": "1996-12-13",
            "close_approach_date_full": "1996-Dec-13 18:18",
            "epoch_date_close_approach": 850501080000,
            "relative_velocity": {
                "kilometers_per_second": "18.79644793",
                "kilometers_per_hour": "67667.2125478938",
                "miles_per_hour": "42045.774374551"
            },
            "miss_distance": {
                "astronomical": "0.4728825602",
                "lunar": "183.9513159178",
                "kilometers": "70742223.766066774",
                "miles": "43957179.5267345212"
            },
            "orbiting_body": "Earth"
        },
        {
            "close_approach_date": "2001-11-21",
            "close_approach_date_full": "2001-Nov-21 07:20",
            "epoch_date_close_approach": 1006327200000,
            "relative_velocity": {
                "kilometers_per_second": "6.8846079083",
                "kilometers_per_hour": "24784.5884698847",
                "miles_per_hour": "15400.1794300792"
            },
            "miss_distance": {
                "astronomical": "0.253336456",
                "lunar": "98.547881384",
                "kilometers": "37898594.21094872",
                "miles": "23549094.456663536"
            },
            "orbiting_body": "Earth"
        },
        {
            "close_approach_date": "2002-05-04",
            "close_approach_date_full": "2002-May-04 02:51",
            "epoch_date_close_approach": 1020480660000,
            "relative_velocity": {
                "kilometers_per_second": "7.7025595347",
                "kilometers_per_hour": "27729.2143248562",
                "miles_per_hour": "17229.8554231308"
            },
            "miss_distance": {
                "astronomical": "0.0099890207",
                "lunar": "3.8857290523",
                "kilometers": "1494336.220105909",
                "miles": "928537.4703191842"
            },
            "orbiting_body": "Earth"
        },
        {
            "close_approach_date": "2014-12-16",
            "close_approach_date_full": "2014-Dec-16 06:35",
            "epoch_date_close_approach": 1418711700000,
            "relative_velocity": {
                "kilometers_per_second": "19.0657459784",
                "kilometers_per_hour": "68636.6855223275",
                "miles_per_hour": "42648.1671791373"
            },
            "miss_distance": {
                "astronomical": "0.4832742812",
                "lunar": "187.9936953868",
                "kilometers": "72296803.093301044",
                "miles": "44923150.3280166472"
            },
            "orbiting_body": "Earth"
        }
    ],
    "orbital_data": {
        "orbit_id": "12",
        "orbit_determination_date": "2017-04-06 09:15:10",
        "first_observation_date": "2002-05-08",
        "last_observation_date": "2002-05-20",
        "data_arc_in_days": 12,
        "observations_used": 25,
        "orbit_uncertainty": "8",
        "minimum_orbit_intersection": ".00381422",
        "jupiter_tisserand_invariant": "5.310",
        "epoch_osculation": "2452408.5",
        "eccentricity": ".213835839933196",
        "semi_major_axis": "1.184206297339349",
        "inclination": "10.73158136387752",
        "ascending_node_longitude": "223.3115513854513",
        "orbital_period": "470.6948821003105",
        "perihelion_distance": ".9309805490936094",
        "perihelion_argument": "302.6595529653614",
        "aphelion_distance": "1.437432045585089",
        "perihelion_time": "2452348.698038627855",
        "mean_anomaly": "45.73813506938489",
        "mean_motion": ".7648266715661459",
        "equinox": "J2000",
        "orbit_class": {
            "orbit_class_type": "APO",
            "orbit_class_description": "Near-Earth asteroid orbits which cross the Earth’s orbit similar to that of 1862 Apollo",
            "orbit_class_range": "a (semi-major axis) > 1.0 AU; q (perihelion) < 1.017 AU"
        }
    },
    "is_sentry_object": false
}